ZORKIY-2M 1             
1 57177U 23091M   26155.18426882  .00008381  00000+0  38307-3 0  9993
2 57177  97.5092 214.1920 0014104 156.3845 203.8040 15.20724234162020
CUBESX-HSE 3 (RS42S)    
1 57178U 23091N   26155.16785049  .00015001  00000+0  50399-3 0  9997
2 57178  97.5094 220.5936 0012045 134.9325 225.2895 15.30869571162434
MONITOR-3 (RS58S)       
1 57180U 23091Q   26155.16389975  .00011994  00000+0  44641-3 0  9998
2 57180  97.5085 218.5166 0012863 141.1957 219.0208 15.27565922162302
MONITOR-4 (RS57S)       
1 57182U 23091S   26155.14373027  .00012486  00000+0  46321-3 0  9993
2 57182  97.5078 218.4669 0012805 141.6583 218.5569 15.27663554162303
MONITOR-2 (RS39S)       
1 57184U 23091U   26155.20231679  .00005604  00000+0  27231-3 0  9991
2 57184  97.5075 213.5700 0012066 151.3600 208.8299 15.18783513161984
SVYATOBOR 1 (RS60S)     
1 57187U 23091X   26155.14575215  .00010063  00000+0  38898-3 0  9990
2 57187  97.5090 218.8925 0010712 133.7795 226.4331 15.26381950162326
HORS 1                  
1 57188U 23091Y   26155.13217418  .00010592  00000+0  40807-3 0  9998
2 57188  97.5069 218.6431 0010202 133.1490 227.0603 15.26481984162320
VIZARD-METEO (RS38S)    
1 57189U 23091Z   26155.11681251  .00018692  00000+0  54136-3 0  9996
2 57189  97.5093 224.3441 0008752 116.2926 243.9218 15.35589021162685
SITRO-AIS 6 (CHIRKIN)   
1 57192U 23091AC  26155.06360465  .00011802  00000+0  46513-3 0  9991
2 57192  97.5070 218.0290 0012731 147.2959 212.9070 15.25671093162286
SITRO-AIS 8 (ANOKHIN)   
1 57193U 23091AD  26155.15423316  .00016264  00000+0  53120-3 0  9996
2 57193  97.5059 220.4686 0011702 139.9672 220.2434 15.31766300162455
SITRO-AIS 7 (FARTUSHNIY)
1 57194U 23091AE  26155.12969420  .00011965  00000+0  47580-3 0  9991
2 57194  97.5068 217.9269 0012561 148.0097 212.1906 15.25367697162284
AVION KALUGA 650        
1 57195U 23091AF  26155.19579959  .00006671  00000+0  31052-3 0  9998
2 57195  97.5092 214.8257 0011300 149.1743 211.0158 15.20207055162053
HORS 2                  
1 57196U 23091AG  26155.16395154  .00015324  00000+0  50461-3 0  9999
2 57196  97.5090 222.0191 0009537 126.3026 233.9097 15.31539678162539
A-SEANSAT-PG1           
1 57197U 23091AH  26155.18347264  .00021114  00000+0  59375-3 0  9998
2 57197  97.5082 224.4919 0008632 123.0692 237.1381 15.36487784162710
SITRO-AIS 10 (BURDAEV)  
1 57199U 23091AK  26155.10991345  .00022163  00000+0  59183-3 0  9999
2 57199  97.5082 225.3446 0007997 118.3858 241.8193 15.38090582162756
SITRO-AIS 9 (SHCHUKIN)  
1 57201U 23091AM  26155.06715287  .00021510  00000+0  58331-3 0  9996
2 57201  97.5081 225.0409 0008209 118.6662 241.5408 15.37617517162734
UTMN 2 (RS27S)          
1 57203U 23091AP  26155.19259168  .00014856  00000+0  48662-3 0  9994
2 57203  97.5089 222.2366 0009450 122.2122 238.0036 15.31717738162554
SITRO-AIS 12 (SMIRENNIY)
1 57204U 23091AQ  26155.19037700  .00022184  00000+0  59582-3 0  9997
2 57204  97.5093 225.6260 0007849 113.3448 246.8623 15.37912761162774
SITRO-AIS 11 (SHEFFER)  
1 57208U 23091AU  26155.01219360  .00022939  00000+0  60800-3 0  9999
2 57208  97.5091 225.6821 0007793 113.8409 246.3653 15.38315620162768
H2SAT (HEINRICH HERTZ)  
1 57213U 23093A   26155.13748117  .00000014  00000+0  00000+0 0  9999
2 57213   0.0448 123.4904 0000975 332.0680 207.2004  1.00272490 10788
KUZGTU 1 (RS47S)        
1 57217U 23091AV  26155.08213907  .00013501  00000+0  47282-3 0  9991
2 57217  97.5065 219.4315 0012168 138.4350 221.7817 15.29543001162370
QIANKUN-1               
1 57422U 23103B   26151.67722356  .00022767  18877-5  28012-4 0  9999
2 57422  96.1558 197.6671 0024054 142.5816 217.7151 16.07626689164641
FENGYUN 3F              
1 57490U 23111A   26155.14952613  .00000066  00000+0  51368-4 0  9991
2 57490  98.6837 225.4008 0001552 102.9046 257.2304 14.19936767147013
HJ-2F                   
1 57519U 23116A   26155.17114775  .00008729  00000+0  38323-3 0  9999
2 57519  97.3843 160.6185 0010587  89.5122 270.7328 15.22124654156775
XRISM                   
1 57800U 23137A   26153.27519307  .00005615  00000+0  31044-3 0  9998
2 57800  31.0020  96.1840 0007694 175.1081 184.9634 15.12327778150605
METEOR-M2 4             
1 59051U 24039A   26155.17014986  .00000019  00000+0  28399-4 0  9997
2 59051  98.7005 114.6323 0006520 199.0460 161.0475 14.22428116117412
GRBBETA                 
1 60237U 24128C   26154.87962689  .00004824  00000+0  33246-3 0  9996
2 60237  61.9905 262.9523 0042441 131.9230 228.5494 15.06538097104264
TRANSPORTER-11 OBJECT A 
1 60468U 24149A   26155.09704065  .00009643  00000+0  30792-3 0  9999
2 60468  97.3731 235.0694 0001737 255.7782 104.3267 15.32684039100059
WARATAH SEED-1          
1 60469U 24149B   26155.01479024  .00014804  00000+0  42975-3 0  9997
2 60469  97.3686 235.5807 0000334 231.4383 128.6830 15.35600421100095
